NORAD_CAT_ID,OBJECT_NAME,OBJECT_TYPE,EPOCH,MEAN_MOTION,ECCENTRICITY,INCLINATION,RA_OF_ASC_NODE,ARG_OF_PERICENTER,MEAN_ANOMALY,BSTAR,MEAN_MOTION_DOT,MEAN_MOTION_DDOT,TLE_LINE0,TLE_LINE1,TLE_LINE2,SEMIMAJOR_AXIS,PERIOD,APOGEE,PERIGEE,DECAYED
53540.0,STARLINK-4486,PAYLOAD,2023-06-04 17:37:33,15.08846908,9.84e-05,53.2162,273.4973,91.5127,268.5978,0.00014119,1.96e-05,0.0,0 STARLINK-4486,1 53540U 22101P   23155.73440984  .00001960  00000-0  14119-3 0  9993,2 53540  53.2162 273.4973 0000984  91.5127 268.5978 15.08846908 44674,6917.859,95.437,540.405,539.044,0.0
53540.0,STARLINK-4486,PAYLOAD,2023-06-05 07:56:02,15.08826804,0.0001026,53.2162,270.8193,105.3912,254.7193,0.0002155,3.142e-05,0.0,0 STARLINK-4486,1 53540U 22101P   23156.33058013  .00003142  00000-0  21550-3 0  9999,2 53540  53.2162 270.8193 0001026 105.3912 254.7193 15.08826804 44076,6917.921,95.438,540.496,539.076,0.0
53540.0,STARLINK-4486,PAYLOAD,2023-06-05 14:17:34,15.08842351,8.52e-05,53.2161,269.6331,85.3633,274.7456,0.0001181,1.592e-05,0.0,0 STARLINK-4486,1 53540U 22101P   23156.59553314  .00001592  00000-0  11810-3 0  9996,2 53540  53.2161 269.6331 0000852  85.3633 274.7456 15.08842351 44808,6917.873,95.437,540.328,539.149,0.0
53540.0,STARLINK-4486,PAYLOAD,2023-06-05 17:28:20,15.08846607,9.95e-05,53.216,269.0379,84.2146,275.8959,8.0931e-05,1.001e-05,0.0,0 STARLINK-4486,1 53540U 22101P   23156.72801142  .00001001  00000-0  80931-4 0  9992,2 53540  53.2160 269.0379 0000995  84.2146 275.8959 15.08846607 44828,6917.86,95.437,540.414,539.037,0.0
53540.0,STARLINK-4486,PAYLOAD,2023-06-06 07:46:49,15.08837211,9.39e-05,53.216,266.3619,92.6,267.51,-5.3488e-06,-3.73e-06,0.0,0 STARLINK-4486,1 53540U 22101P   23157.32417932 -.00000373  00000-0 -53488-5 0  9990,2 53540  53.2160 266.3619 0000939  92.6000 267.5100 15.08837211 44226,6917.889,95.438,540.404,539.104,0.0
53540.0,STARLINK-4486,PAYLOAD,2023-06-06 10:57:35,15.08838158,9.81e-05,53.2158,265.7672,92.9496,267.1609,-2.224e-06,-3.23e-06,0.0,0 STARLINK-4486,1 53540U 22101P   23157.45665878 -.00000323  00000-0 -22240-5 0  9995,2 53540  53.2158 265.7672 0000981  92.9496 267.1609 15.08838158 44933,6917.886,95.438,540.43,539.072,0.0
53540.0,STARLINK-4486,PAYLOAD,2023-06-06 17:19:07,15.08844111,9.36e-05,53.2159,264.5776,98.5294,261.5804,3.8156e-05,3.2e-06,0.0,0 STARLINK-4486,1 53540U 22101P   23157.72161312  .00000320  00000-0  38156-4 0  9996,2 53540  53.2159 264.5776 0000936  98.5294 261.5804 15.08844111 44283,6917.868,95.437,540.38,539.085,0.0
53540.0,STARLINK-4486,PAYLOAD,2023-06-06 18:54:30,15.08843723,9.64e-05,53.216,264.2802,96.7191,263.3911,0.00012205,1.655e-05,0.0,0 STARLINK-4486,1 53540U 22101P   23157.78785132  .00001655  00000-0  12205-3 0  9992,2 53540  53.2160 264.2802 0000964  96.7191 263.3911 15.08843723 44983,6917.869,95.437,540.401,539.067,0.0
53540.0,STARLINK-4486,PAYLOAD,2023-06-07 07:37:36,15.08835008,0.0001209,53.2154,261.9014,104.3812,255.7314,5.6271e-06,-1.98e-06,0.0,0 STARLINK-4486,1 53540U 22101P   23158.31778129 -.00000198  00000-0  56271-5 0  9995,2 53540  53.2154 261.9014 0001209 104.3812 255.7314 15.08835008 44376,6917.896,95.438,540.597,538.924,0.0
53540.0,STARLINK-4486,PAYLOAD,2023-06-07 18:45:17,15.08844219,0.0001208,53.2153,259.82,105.3248,254.7878,6.4019e-05,7.31e-06,0.0,0 STARLINK-4486,1 53540U 22101P   23158.78145390  .00000731  00000-0  64019-4 0  9994,2 53540  53.2153 259.8200 0001208 105.3248 254.7878 15.08844219 45134,6917.867,95.437,540.568,538.897,0.0
53540.0,STARLINK-4486,PAYLOAD,2023-06-07 23:31:27,15.08842966,8.85e-05,53.2166,258.9279,92.9519,267.1575,2.4106e-05,9.6e-07,0.0,0 STARLINK-4486,1 53540U 22101P   23158.98017608  .00000096  00000-0  24106-4 0  9993,2 53540  53.2166 258.9279 0000885  92.9519 267.1575 15.08842966 44471,6917.871,95.437,540.349,539.124,0.0
53540.0,STARLINK-4486,PAYLOAD,2023-06-08 12:14:32,15.08837537,0.0001068,53.216,256.5488,98.3923,261.7191,3.7832e-05,3.14e-06,0.0,0 STARLINK-4486,1 53540U 22101P   23159.51010158  .00000314  00000-0  37832-4 0  9999,2 53540  53.2160 256.5488 0001068  98.3923 261.7191 15.08837537 45242,6917.888,95.438,540.492,539.014,0.0
53540.0,STARLINK-4486,PAYLOAD,2023-06-08 15:25:18,15.08840829,0.0001128,53.2162,255.9544,92.5414,267.5708,9.5474e-05,1.232e-05,0.0,0 STARLINK-4486,1 53540U 22101P   23159.64257773  .00001232  00000-0  95474-4 0  9995,2 53540  53.2162 255.9544 0001128  92.5414 267.5708 15.08840829 45266,6917.878,95.438,540.523,538.963,0.0
53540.0,STARLINK-4486,PAYLOAD,2023-06-09 10:29:57,15.08835776,0.0001065,53.216,252.3857,78.8066,281.3045,1.3954e-05,-6.6e-07,0.0,0 STARLINK-4486,1 53540U 22101P   23160.43746595 -.00000066  00000-0  13954-4 0  9997,2 53540  53.2160 252.3857 0001065  78.8066 281.3045 15.08835776 45388,6917.893,95.438,540.495,539.022,0.0
53540.0,STARLINK-4486,PAYLOAD,2023-06-09 13:40:43,15.08840611,0.0001079,53.2161,251.7913,71.3105,288.8004,2.1603e-05,5.6e-07,0.0,0 STARLINK-4486,1 53540U 22101P   23160.56994280  .00000056  00000-0  21603-4 0  9995,2 53540  53.2161 251.7913 0001079  71.3105 288.8004 15.08840611 44719,6917.879,95.438,540.49,538.997,0.0
53540.0,STARLINK-4486,PAYLOAD,2023-06-10 05:34:34,15.08838146,0.0001038,53.2153,248.819,88.1812,271.9299,0.00010441,1.374e-05,0.0,0 STARLINK-4486,1 53540U 22101P   23161.23234250  .00001374  00000-0  10441-3 0  9995,2 53540  53.2153 248.8190 0001038  88.1812 271.9299 15.08838146 45507,6917.886,95.438,540.469,539.033,0.0
53540.0,STARLINK-4486,PAYLOAD,2023-06-10 13:31:29,15.08844549,0.0001025,53.2156,247.3311,86.2006,273.9103,5.2336e-05,5.45e-06,0.0,0 STARLINK-4486,1 53540U 22101P   23161.56354080  .00000545  00000-0  52336-4 0  9994,2 53540  53.2156 247.3311 0001025  86.2006 273.9103 15.08844549 45554,6917.866,95.437,540.441,539.022,0.0
53540.0,STARLINK-4486,PAYLOAD,2023-06-11 11:46:54,15.08838984,0.0001189,53.2163,243.1689,84.9411,275.1716,4.5599e-05,4.38e-06,0.0,0 STARLINK-4486,1 53540U 22101P   23162.49090632  .00000438  00000-0  45599-4 0  9991,2 53540  53.2163 243.1689 0001189  84.9411 275.1716 15.08838984 45695,6917.883,95.438,540.571,538.926,0.0
53540.0,STARLINK-4486,PAYLOAD,2023-06-12 11:37:40,15.08850256,0.0001116,53.2154,238.7072,85.6703,274.4417,0.00014589,2.035e-05,0.0,0 STARLINK-4486,1 53540U 22101P   23163.48449435  .00002035  00000-0  14589-3 0  9999,2 53540  53.2154 238.7072 0001116  85.6703 274.4417 15.08850256 45846,6917.849,95.437,540.486,538.942,0.0
53540.0,STARLINK-4486,PAYLOAD,2023-06-13 05:06:55,15.08836173,0.0001013,53.2154,235.4348,81.8331,278.2776,1.2089e-05,-9.5e-07,0.0,0 STARLINK-4486,1 53540U 22101P   23164.21314621 -.00000095  00000-0  12089-4 0  9998,2 53540  53.2154 235.4348 0001013  81.8331 278.2776 15.08836173 45265,6917.892,95.438,540.458,539.056,0.0
53540.0,STARLINK-4486,PAYLOAD,2023-06-13 14:39:14,15.08835262,0.0001019,53.2154,233.6508,80.3579,279.7528,-8.5801e-07,-3.01e-06,0.0,0 STARLINK-4486,1 53540U 22101P   23164.61058767 -.00000301  00000-0 -85801-6 0  9993,2 53540  53.2154 233.6508 0001019  80.3579 279.7528 15.08835262 46010,6917.895,95.438,540.465,539.055,0.0
53540.0,STARLINK-4486,PAYLOAD,2023-06-14 04:57:42,15.08842302,0.0001029,53.2146,230.9744,74.4121,285.6985,-3.2282e-06,-3.39e-06,0.0,0 STARLINK-4486,1 53540U 22101P   23165.20674426 -.00000339  00000-0 -32282-5 0  9990,2 53540  53.2146 230.9744 0001029  74.4121 285.6985 15.08842302 46107,6917.873,95.437,540.45,539.027,0.0
53540.0,STARLINK-4486,PAYLOAD,2023-06-14 20:51:33,15.08843467,0.0001018,53.2145,228.0006,65.6535,294.4563,-4.0462e-06,-3.52e-06,0.0,0 STARLINK-4486,1 53540U 22101P   23165.86914256 -.00000352  00000-0 -40462-5 0  9994,2 53540  53.2145 228.0006 0001018  65.6535 294.4563 15.08843467 46208,6917.87,95.437,540.439,539.031,0.0
53540.0,STARLINK-4486,PAYLOAD,2023-06-15 03:13:06,15.08893944,7.71e-05,53.2156,226.8133,109.2639,250.8437,-0.00077167,-0.00012566,0.0,0 STARLINK-4486,1 53540U 22101P   23166.13410293 -.00012566  00000-0 -77167-3 0  9997,2 53540  53.2156 226.8133 0000771 109.2639 250.8437 15.08893944 45550,6917.716,95.434,540.114,539.047,0.0
53540.0,STARLINK-4486,PAYLOAD,2023-06-15 09:34:39,15.08829091,0.0001064,53.2155,225.6234,97.9862,262.1251,5.3975e-05,5.71e-06,0.0,0 STARLINK-4486,1 53540U 22101P   23166.39907249  .00000571  00000-0  53975-4 0  9990,2 53540  53.2155 225.6234 0001064  97.9862 262.1251 15.08829091 45591,6917.914,95.438,540.515,539.043,0.0
53540.0,STARLINK-4486,PAYLOAD,2023-06-15 12:45:26,15.0883196,0.0001071,53.2156,225.0287,97.5213,262.5901,7.5472e-05,9.13e-06,0.0,0 STARLINK-4486,1 53540U 22101P   23166.53155101  .00000913  00000-0  75472-4 0  9994,2 53540  53.2156 225.0287 0001071  97.5213 262.5901 15.08831960 46302,6917.905,95.438,540.511,539.029,0.0
53540.0,STARLINK-4486,PAYLOAD,2023-06-15 23:53:07,15.08838249,0.0001037,53.2152,222.9472,94.7787,265.3324,9.7325e-05,1.261e-05,0.0,0 STARLINK-4486,1 53540U 22101P   23166.99522795  .00001261  00000-0  97325-4 0  9999,2 53540  53.2152 222.9472 0001037  94.7787 265.3324 15.08838249 45684,6917.886,95.438,540.468,539.033,0.0
53540.0,STARLINK-4486,PAYLOAD,2023-06-16 09:25:25,15.08847034,0.000107,53.2153,221.1632,94.6215,265.49,0.00013317,1.833e-05,0.0,0 STARLINK-4486,1 53540U 22101P   23167.39266168  .00001833  00000-0  13317-3 0  9996,2 53540  53.2153 221.1632 0001070  94.6215 265.4900 15.08847034 45746,6917.859,95.437,540.464,538.984,0.0
53540.0,STARLINK-4486,PAYLOAD,2023-06-16 12:36:11,15.08850774,0.0001066,53.2154,220.5685,94.8807,265.2307,0.0001533,2.153e-05,0.0,0 STARLINK-4486,1 53540U 22101P   23167.52513859  .00002153  00000-0  15330-3 0  9996,2 53540  53.2154 220.5685 0001066  94.8807 265.2307 15.08850774 46455,6917.847,95.437,540.45,538.975,0.0
53540.0,STARLINK-4486,PAYLOAD,2023-06-17 04:30:04,15.08837809,0.0001413,53.2159,217.5937,114.9512,245.1627,0.0001128,1.508e-05,0.0,0 STARLINK-4486,1 53540U 22101P   23168.18754703  .00001508  00000-0  11280-3 0  9997,2 53540  53.2159 217.5937 0001413 114.9512 245.1627 15.08837809 45869,6917.887,95.438,540.73,538.775,0.0
